[Satellite]
VERSION=1.1
NAME=MAX VALIER SAT
NICKNAME=MAX VALIER SAT
TLE1=1 42778U 17036P   19316.91849171  .00001001  00000-0  46449-4 0  9998
TLE2=2 42778  97.3370  11.2126 0013859  70.6907 289.5827 15.22243302132637
STATUS=0
